{
  "type": "FeatureCollection",
  "features": [
    {
      "type": "Feature",
      "properties": {
        "norad_id": 33939,
        "name": "COSMOS 2251 DEB",
        "group": "cosmos-2251-debris",
        "lat": 48.15426277971727,
        "lon": -97.55164930591724,
        "alt_km": 564.2887951082184,
        "timestamp": "2025-12-02T15:49:07.587383+00:00",
        "meta_object_name": "COSMOS 2251 DEB",
        "meta_object_id": "1993-036EU",
        "meta_epoch": "2025-12-02T02:25:36.601248",
        "meta_mean_motion": 14.98513643,
        "meta_eccentricity": 0.00034317,
        "meta_inclination": 74.0064,
        "meta_ra_of_asc_node": 102.261,
        "meta_arg_of_pericenter": 128.9391,
        "meta_mean_anomaly": 231.2101,
        "meta_ephemeris_type": 0,
        "meta_classification_type": "U",
        "meta_norad_cat_id": 33939,
        "meta_element_set_no": 999,
        "meta_rev_at_epoch": 88593,
        "meta_bstar": 0.0041270913,
        "meta_mean_motion_dot": 0.00049718,
        "meta_mean_motion_ddot": 0,
        "tle_line1": "1 33939U 93036EU  25336.10111807  .00049718  00000+0  41271-2 0  9991",
        "tle_line2": "2 33939  74.0064 102.2610 0003431 128.9391 231.2101 14.98513643885933"
      },
      "geometry": {
        "type": "Point",
        "coordinates": [
          -97.55164930591724,
          48.15426277971727
        ]
      }
    },
    {
      "type": "Feature",
      "properties": {
        "norad_id": 33940,
        "name": "COSMOS 2251 DEB",
        "group": "cosmos-2251-debris",
        "lat": -64.72296817462835,
        "lon": 125.38056431643388,
        "alt_km": 698.9227262598324,
        "timestamp": "2025-12-02T15:49:07.587393+00:00",
        "meta_object_name": "COSMOS 2251 DEB",
        "meta_object_id": "1993-036EV",
        "meta_epoch": "2025-12-01T22:21:22.107168",
        "meta_mean_motion": 14.58623365,
        "meta_eccentricity": 0.00117714,
        "meta_inclination": 74.0387,
        "meta_ra_of_asc_node": 164.0729,
        "meta_arg_of_pericenter": 243.1066,
        "meta_mean_anomaly": 187.5388,
        "meta_ephemeris_type": 0,
        "meta_classification_type": "U",
        "meta_norad_cat_id": 33940,
        "meta_element_set_no": 999,
        "meta_rev_at_epoch": 88436,
        "meta_bstar": 0.0011139104,
        "meta_mean_motion_dot": 5.167e-05,
        "meta_mean_motion_ddot": 0,
        "tle_line1": "1 33940U 93036EV  25335.93150587  .00005167  00000+0  11139-2 0  9991",
        "tle_line2": "2 33940  74.0387 164.0729 0011771 243.1066 187.5388 14.58623365884360"
      },
      "geometry": {
        "type": "Point",
        "coordinates": [
          125.38056431643388,
          -64.72296817462835
        ]
      }
    },
    {
      "type": "Feature",
      "properties": {
        "norad_id": 33942,
        "name": "COSMOS 2251 DEB",
        "group": "cosmos-2251-debris",
        "lat": 19.962269072860693,
        "lon": 107.42601931244039,
        "alt_km": 775.7983440772823,
        "timestamp": "2025-12-02T15:49:07.587403+00:00",
        "meta_object_name": "COSMOS 2251 DEB",
        "meta_object_id": "1993-036EX",
        "meta_epoch": "2025-12-02T07:25:59.827872",
        "meta_mean_motion": 14.37962298,
        "meta_eccentricity": 0.00198399,
        "meta_inclination": 74.0361,
        "meta_ra_of_asc_node": 294.0372,
        "meta_arg_of_pericenter": 19.7334,
        "meta_mean_anomaly": 131.242,
        "meta_ephemeris_type": 0,
        "meta_classification_type": "U",
        "meta_norad_cat_id": 33942,
        "meta_element_set_no": 999,
        "meta_rev_at_epoch": 87984,
        "meta_bstar": 0.00033804285,
        "meta_mean_motion_dot": 9.98e-06,
        "meta_mean_motion_ddot": 0,
        "tle_line1": "1 33942U 93036EX  25336.30972023  .00000998  00000+0  33804-3 0  9993",
        "tle_line2": "2 33942  74.0361 294.0372 0019839  19.7334 131.2420 14.37962298879848"
      },
      "geometry": {
        "type": "Point",
        "coordinates": [
          107.42601931244039,
          19.962269072860693
        ]
      }
    },
    {
      "type": "Feature",
      "properties": {
        "norad_id": 33944,
        "name": "COSMOS 2251 DEB",
        "group": "cosmos-2251-debris",
        "lat": 53.44618784029643,
        "lon": -9.822127520811279,
        "alt_km": 684.050256986453,
        "timestamp": "2025-12-02T15:49:07.587413+00:00",
        "meta_object_name": "COSMOS 2251 DEB",
        "meta_object_id": "1993-036EZ",
        "meta_epoch": "2025-12-02T07:43:18.051744",
        "meta_mean_motion": 14.37308141,
        "meta_eccentricity": 0.0111913,
        "meta_inclination": 74.04,
        "meta_ra_of_asc_node": 328.0934,
        "meta_arg_of_pericenter": 70.4491,
        "meta_mean_anomaly": 41.5684,
        "meta_ephemeris_type": 0,
        "meta_classification_type": "U",
        "meta_norad_cat_id": 33944,
        "meta_element_set_no": 999,
        "meta_rev_at_epoch": 87878,
        "meta_bstar": 0.0003706369,
        "meta_mean_motion_dot": 1.162e-05,
        "meta_mean_motion_ddot": 0,
        "tle_line1": "1 33944U 93036EZ  25336.32173671  .00001162  00000+0  37064-3 0  9995",
        "tle_line2": "2 33944  74.0400 328.0934 0111913  70.4491  41.5684 14.37308141878788"
      },
      "geometry": {
        "type": "Point",
        "coordinates": [
          -9.822127520811279,
          53.44618784029643
        ]
      }
    },
    {
      "type": "Feature",
      "properties": {
        "norad_id": 33945,
        "name": "COSMOS 2251 DEB",
        "group": "cosmos-2251-debris",
        "lat": -48.74660710725996,
        "lon": -54.31752883014376,
        "alt_km": 787.0547707056085,
        "timestamp": "2025-12-02T15:49:07.587424+00:00",
        "meta_object_name": "COSMOS 2251 DEB",
        "meta_object_id": "1993-036FA",
        "meta_epoch": "2025-12-02T07:41:23.340192",
        "meta_mean_motion": 14.34586828,
        "meta_eccentricity": 0.00215388,
        "meta_inclination": 74.0293,
        "meta_ra_of_asc_node": 325.36,
        "meta_arg_of_pericenter": 54.9485,
        "meta_mean_anomaly": 305.3683,
        "meta_ephemeris_type": 0,
        "meta_classification_type": "U",
        "meta_norad_cat_id": 33945,
        "meta_element_set_no": 999,
        "meta_rev_at_epoch": 87866,
        "meta_bstar": 0.0001815638,
        "meta_mean_motion_dot": 4.88e-06,
        "meta_mean_motion_ddot": 0,
        "tle_line1": "1 33945U 93036FA  25336.32040903  .00000488  00000+0  18156-3 0  9998",
        "tle_line2": "2 33945  74.0293 325.3600 0021538  54.9485 305.3683 14.34586828878666"
      },
      "geometry": {
        "type": "Point",
        "coordinates": [
          -54.31752883014376,
          -48.74660710725996
        ]
      }
    },
    {
      "type": "Feature",
      "properties": {
        "norad_id": 33948,
        "name": "COSMOS 2251 DEB",
        "group": "cosmos-2251-debris",
        "lat": 55.53340032845065,
        "lon": 118.98296406720078,
        "alt_km": 764.1692854561052,
        "timestamp": "2025-12-02T15:49:07.587434+00:00",
        "meta_object_name": "COSMOS 2251 DEB",
        "meta_object_id": "1993-036FD",
        "meta_epoch": "2025-12-02T01:52:48.455040",
        "meta_mean_motion": 14.35608075,
        "meta_eccentricity": 0.00222823,
        "meta_inclination": 74.0351,
        "meta_ra_of_asc_node": 324.6961,
        "meta_arg_of_pericenter": 43.6672,
        "meta_mean_anomaly": 316.6238,
        "meta_ephemeris_type": 0,
        "meta_classification_type": "U",
        "meta_norad_cat_id": 33948,
        "meta_element_set_no": 999,
        "meta_rev_at_epoch": 87870,
        "meta_bstar": 0.00022847413,
        "meta_mean_motion_dot": 6.34e-06,
        "meta_mean_motion_ddot": 0,
        "tle_line1": "1 33948U 93036FD  25336.07833860  .00000634  00000+0  22847-3 0  9990",
        "tle_line2": "2 33948  74.0351 324.6961 0022282  43.6672 316.6238 14.35608075878702"
      },
      "geometry": {
        "type": "Point",
        "coordinates": [
          118.98296406720078,
          55.53340032845065
        ]
      }
    },
    {
      "type": "Feature",
      "properties": {
        "norad_id": 33971,
        "name": "COSMOS 2251 DEB",
        "group": "cosmos-2251-debris",
        "lat": 38.315155946979644,
        "lon": -74.55453299323041,
        "alt_km": 744.6659033854548,
        "timestamp": "2025-12-02T15:49:07.587444+00:00",
        "meta_object_name": "COSMOS 2251 DEB",
        "meta_object_id": "1993-036FE",
        "meta_epoch": "2025-12-02T06:08:11.673888",
        "meta_mean_motion": 14.39691771,
        "meta_eccentricity": 0.00180439,
        "meta_inclination": 74.0248,
        "meta_ra_of_asc_node": 273.108,
        "meta_arg_of_pericenter": 15.6945,
        "meta_mean_anomaly": 94.3946,
        "meta_ephemeris_type": 0,
        "meta_classification_type": "U",
        "meta_norad_cat_id": 33971,
        "meta_element_set_no": 999,
        "meta_rev_at_epoch": 87988,
        "meta_bstar": 0.00043435596,
        "meta_mean_motion_dot": 1.336e-05,
        "meta_mean_motion_ddot": 0,
        "tle_line1": "1 33971U 93036FE  25336.25569067  .00001336  00000+0  43436-3 0  9998",
        "tle_line2": "2 33971  74.0248 273.1080 0018043  15.6945  94.3946 14.39691771879880"
      },
      "geometry": {
        "type": "Point",
        "coordinates": [
          -74.55453299323041,
          38.315155946979644
        ]
      }
    }
  ]
}